{"type": "FeatureCollection", "features": [ {"type": "Feature", "properties": {"norad_id": 31226, "name": "FENGYUN 1C DEB", "group": "fengyun-1c-debris", "lat": -28.043914459203112, "lon": 164.68969539718117, "alt_km": 722.9920647607996, "timestamp": "2025-12-15T11:38:37.434837+00:00", "meta": {"OBJECT_NAME": "FENGYUN 1C DEB", "OBJECT_ID": "1999-025BLG", "EPOCH": "2025-12-14T17:50:24.019584", "MEAN_MOTION": 14.266967, "ECCENTRICITY": 0.01268976, "INCLINATION": 98.3502, "RA_OF_ASC_NODE": 348.469, "ARG_OF_PERICENTER": 190.0622, "MEAN_ANOMALY": 169.8016, "EPHEMERIS_TYPE": 0, "CLASSIFICATION_TYPE": "U", "NORAD_CAT_ID": 31226, "ELEMENT_SET_NO": 999, "REV_AT_EPOCH": 62082, "BSTAR": 0.00040971439, "MEAN_MOTION_DOT": 1.037e-05, "MEAN_MOTION_DDOT": 0}, "tle": {"line1": "1 31226U 99025BLG 25348.74333356  .00001037  00000+0  40971-3 0  9999", "line2": "2 31226  98.3502 348.4690 0126897 190.0622 169.8016 14.26696700620820"}}, "geometry": {"type": "Point", "coordinates": [164.68969539718117, -28.043914459203112]}}, {"type": "Feature", "properties": {"norad_id": 31228, "name": "FENGYUN 1C DEB", "group": "fengyun-1c-debris", "lat": -58.27267525158444, "lon": -83.98636628218799, "alt_km": 817.22076093324, "timestamp": "2025-12-15T11:38:37.434848+00:00", "meta": {"OBJECT_NAME": "FENGYUN 1C DEB", "OBJECT_ID": "1999-025BLJ", "EPOCH": "2025-12-14T17:39:46.700352", "MEAN_MOTION": 14.36927472, "ECCENTRICITY": 0.00793629, "INCLINATION": 98.8689, "RA_OF_ASC_NODE": 260.6138, "ARG_OF_PERICENTER": 80.1662, "MEAN_ANOMALY": 307.7525, "EPHEMERIS_TYPE": 0, "CLASSIFICATION_TYPE": "U", "NORAD_CAT_ID": 31228, "ELEMENT_SET_NO": 999, "REV_AT_EPOCH": 97598, "BSTAR": 0.00054082242, "MEAN_MOTION_DOT": 1.613e-05, "MEAN_MOTION_DDOT": 0}, "tle": {"line1": "1 31228U 99025BLJ 25348.73595718  .00001613  00000+0  54082-3 0  9990", "line2": "2 31228  98.8689 260.6138 0079362  80.1662 307.7525 14.36927472975984"}}, "geometry": {"type": "Point", "coordinates": [-83.98636628218799, -58.27267525158444]}}, {"type": "Feature", "properties": {"norad_id": 31229, "name": "FENGYUN 1C DEB", "group": "fengyun-1c-debris", "lat": -50.152786592642705, "lon": 75.5904838686499, "alt_km": 790.1030614129822, "timestamp": "2025-12-15T11:38:37.434858+00:00", "meta": {"OBJECT_NAME": "FENGYUN 1C DEB", "OBJECT_ID": "1999-025BLK", "EPOCH": "2025-12-14T15:36:52.469856", "MEAN_MOTION": 14.21833521, "ECCENTRICITY": 0.0053155, "INCLINATION": 98.8679, "RA_OF_ASC_NODE": 63.9701, "ARG_OF_PERICENTER": 291.1165, "MEAN_ANOMALY": 68.4335, "EPHEMERIS_TYPE": 0, "CLASSIFICATION_TYPE": "U", "NORAD_CAT_ID": 31229, "ELEMENT_SET_NO": 999, "REV_AT_EPOCH": 96111, "BSTAR": 0.0014359219, "MEAN_MOTION_DOT": 3.164e-05, "MEAN_MOTION_DDOT": 0}, "tle": {"line1": "1 31229U 99025BLK 25348.65060729  .00003164  00000+0  14359-2 0  9996", "line2": "2 31229  98.8679  63.9701 0053155 291.1165  68.4335 14.21833521961113"}}, "geometry": {"type": "Point", "coordinates": [75.5904838686499, -50.152786592642705]}}, {"type": "Feature", "properties": {"norad_id": 31231, "name": "FENGYUN 1C DEB", "group": "fengyun-1c-debris", "lat": 42.67251045806186, "lon": -22.841913539815657, "alt_km": 558.6511458596615, "timestamp": "2025-12-15T11:38:37.434869+00:00", "meta": {"OBJECT_NAME": "FENGYUN 1C DEB", "OBJECT_ID": "1999-025BLM", "EPOCH": "2025-12-10T17:07:20.657856", "MEAN_MOTION": 14.75448161, "ECCENTRICITY": 0.01463394, "INCLINATION": 98.8622, "RA_OF_ASC_NODE": 143.661, "ARG_OF_PERICENTER": 112.7421, "MEAN_ANOMALY": 248.9327, "EPHEMERIS_TYPE": 0, "CLASSIFICATION_TYPE": "U", "NORAD_CAT_ID": 31231, "ELEMENT_SET_NO": 999, "REV_AT_EPOCH": 62991, "BSTAR": 0.0049834558, "MEAN_MOTION_DOT": 0.00040479, "MEAN_MOTION_DDOT": 0}, "tle": {"line1": "1 31231U 99025BLM 25344.71343354  .00040479  00000+0  49835-2 0  9997", "line2": "2 31231  98.8622 143.6610 0146339 112.7421 248.9327 14.75448161629915"}}, "geometry": {"type": "Point", "coordinates": [-22.841913539815657, 42.67251045806186]}}, {"type": "Feature", "properties": {"norad_id": 31234, "name": "FENGYUN 1C DEB", "group": "fengyun-1c-debris", "lat": 42.22230386226726, "lon": 171.480247055366, "alt_km": 855.0810367706226, "timestamp": "2025-12-15T11:38:37.434879+00:00", "meta": {"OBJECT_NAME": "FENGYUN 1C DEB", "OBJECT_ID": "1999-025BLQ", "EPOCH": "2025-12-08T16:58:03.836640", "MEAN_MOTION": 14.08010887, "ECCENTRICITY": 0.00729408, "INCLINATION": 98.7836, "RA_OF_ASC_NODE": 336.8196, "ARG_OF_PERICENTER": 238.3597, "MEAN_ANOMALY": 121.0443, "EPHEMERIS_TYPE": 0, "CLASSIFICATION_TYPE": "U", "NORAD_CAT_ID": 31234, "ELEMENT_SET_NO": 999, "REV_AT_EPOCH": 72663, "BSTAR": 0.00057434574, "MEAN_MOTION_DOT": 9.57e-06, "MEAN_MOTION_DDOT": 0}, "tle": {"line1": "1 31234U 99025BLQ 25342.70698885  .00000957  00000+0  57435-3 0  9992", "line2": "2 31234  98.7836 336.8196 0072940 238.3597 121.0443 14.08010887726637"}}, "geometry": {"type": "Point", "coordinates": [171.480247055366, 42.22230386226726]}}, {"type": "Feature", "properties": {"norad_id": 31235, "name": "FENGYUN 1C DEB", "group": "fengyun-1c-debris", "lat": -44.71448373256215, "lon": -50.850859975766994, "alt_km": 946.7361855801664, "timestamp": "2025-12-15T11:38:37.434889+00:00", "meta": {"OBJECT_NAME": "FENGYUN 1C DEB", "OBJECT_ID": "1999-025BLR", "EPOCH": "2025-12-14T15:57:46.708416", "MEAN_MOTION": 14.18646746, "ECCENTRICITY": 0.01796863, "INCLINATION": 98.4679, "RA_OF_ASC_NODE": 136.8475, "ARG_OF_PERICENTER": 16.4249, "MEAN_ANOMALY": 344.2647, "EPHEMERIS_TYPE": 0, "CLASSIFICATION_TYPE": "U", "NORAD_CAT_ID": 31235, "ELEMENT_SET_NO": 999, "REV_AT_EPOCH": 63194, "BSTAR": 0.002392139, "MEAN_MOTION_DOT": 5.783e-05, "MEAN_MOTION_DDOT": 0}, "tle": {"line1": "1 31235U 99025BLR 25348.66512394  .00005783  00000+0  23921-2 0  9998", "line2": "2 31235  98.4679 136.8475 0179686  16.4249 344.2647 14.18646746631946"}}, "geometry": {"type": "Point", "coordinates": [-50.850859975766994, -44.71448373256215]}}, {"type": "Feature", "properties": {"norad_id": 31236, "name": "FENGYUN 1C DEB", "group": "fengyun-1c-debris", "lat": 40.863625290048205, "lon": 131.94744671363412, "alt_km": 969.7531174026626, "timestamp": "2025-12-15T11:38:37.434901+00:00", "meta": {"OBJECT_NAME": "FENGYUN 1C DEB", "OBJECT_ID": "1999-025BLS", "EPOCH": "2025-12-13T03:33:37.234368", "MEAN_MOTION": 13.85845598, "ECCENTRICITY": 0.0314629, "INCLINATION": 98.5457, "RA_OF_ASC_NODE": 302.337, "ARG_OF_PERICENTER": 45.618, "MEAN_ANOMALY": 317.0289, "EPHEMERIS_TYPE": 0, "CLASSIFICATION_TYPE": "U", "NORAD_CAT_ID": 31236, "ELEMENT_SET_NO": 999, "REV_AT_EPOCH": 61030, "BSTAR": 0.0073482315, "MEAN_MOTION_DOT": 0.00012409, "MEAN_MOTION_DDOT": 0}, "tle": {"line1": "1 31236U 99025BLS 25347.14834762  .00012409  00000+0  73482-2 0  9997", "line2": "2 31236  98.5457 302.3370 0314629  45.6180 317.0289 13.85845598610308"}}, "geometry": {"type": "Point", "coordinates": [131.94744671363412, 40.863625290048205]}}, {"type": "Feature", "properties": {"norad_id": 31237, "name": "FENGYUN 1C DEB", "group": "fengyun-1c-debris", "lat": 26.603192525182923, "lon": 172.54676738317715, "alt_km": 849.0879228295453, "timestamp": "2025-12-15T11:38:37.434911+00:00", "meta": {"OBJECT_NAME": "FENGYUN 1C DEB", "OBJECT_ID": "1999-025BLT", "EPOCH": "2025-12-14T23:11:13.486848", "MEAN_MOTION": 14.31397249, "ECCENTRICITY": 0.00888392, "INCLINATION": 98.4536, "RA_OF_ASC_NODE": 347.77, "ARG_OF_PERICENTER": 342.3879, "MEAN_ANOMALY": 17.423, "EPHEMERIS_TYPE": 0, "CLASSIFICATION_TYPE": "U", "NORAD_CAT_ID": 31237, "ELEMENT_SET_NO": 999, "REV_AT_EPOCH": 97298, "BSTAR": 0.00054612467, "MEAN_MOTION_DOT": 1.469e-05, "MEAN_MOTION_DDOT": 0}, "tle": {"line1": "1 31237U 99025BLT 25348.96612832  .00001469  00000+0  54612-3 0  9990", "line2": "2 31237  98.4536 347.7700 0088839 342.3879  17.4230 14.31397249972988"}}, "geometry": {"type": "Point", "coordinates": [172.54676738317715, 26.603192525182923]}}, {"type": "Feature", "properties": {"norad_id": 31239, "name": "FENGYUN 1C DEB", "group": "fengyun-1c-debris", "lat": 45.97323029744951, "lon": 173.53035187321174, "alt_km": 836.169958686698, "timestamp": "2025-12-15T11:38:37.434921+00:00", "meta": {"OBJECT_NAME": "FENGYUN 1C DEB", "OBJECT_ID": "1999-025BLV", "EPOCH": "2025-12-14T23:13:48.924768", "MEAN_MOTION": 14.09864455, "ECCENTRICITY": 0.00494162, "INCLINATION": 98.7584, "RA_OF_ASC_NODE": 343.8497, "ARG_OF_PERICENTER": 191.6993, "MEAN_ANOMALY": 198.287, "EPHEMERIS_TYPE": 0, "CLASSIFICATION_TYPE": "U", "NORAD_CAT_ID": 31239, "ELEMENT_SET_NO": 999, "REV_AT_EPOCH": 96043, "BSTAR": 0.00034621809, "MEAN_MOTION_DOT": 5.73e-06, "MEAN_MOTION_DDOT": 0}, "tle": {"line1": "1 31239U 99025BLV 25348.96792737  .00000573  00000+0  34622-3 0  9999", "line2": "2 31239  98.7584 343.8497 0049416 191.6993 198.2870 14.09864455960434"}}, "geometry": {"type": "Point", "coordinates": [173.53035187321174, 45.97323029744951]}}, {"type": "Feature", "properties": {"norad_id": 31241, "name": "FENGYUN 1C DEB", "group": "fengyun-1c-debris", "lat": 68.48203415394099, "lon": 112.14517023288332, "alt_km": 766.0894467725993, "timestamp": "2025-12-15T11:38:37.434932+00:00", "meta": {"OBJECT_NAME": "FENGYUN 1C DEB", "OBJECT_ID": "1999-025BLX", "EPOCH": "2025-12-14T08:36:30.410784", "MEAN_MOTION": 14.38706808, "ECCENTRICITY": 0.00668387, "INCLINATION": 99.2333, "RA_OF_ASC_NODE": 135.3007, "ARG_OF_PERICENTER": 176.3169, "MEAN_ANOMALY": 183.8522, "EPHEMERIS_TYPE": 0, "CLASSIFICATION_TYPE": "U", "NORAD_CAT_ID": 31241, "ELEMENT_SET_NO": 999, "REV_AT_EPOCH": 97714, "BSTAR": 0.00079512814, "MEAN_MOTION_DOT": 2.454e-05, "MEAN_MOTION_DDOT": 0}, "tle": {"line1": "1 31241U 99025BLX 25348.35868531  .00002454  00000+0  79513-3 0  9999", "line2": "2 31241  99.2333 135.3007 0066838 176.3169 183.8522 14.38706808977147"}}, "geometry": {"type": "Point", "coordinates": [112.14517023288332, 68.48203415394099]}}]}